{"type": "FeatureCollection", "features": [{"type": "Feature", "geometry": {"type": "Point", "coordinates": [30.5190822, 50.4305715]}, "properties": {"osm_id": "node/5336883122", "type": "hospital", "name": "\u0426\u0435\u043d\u0442\u0440 \u0441\u043f\u043e\u0440\u0442\u0438\u0432\u043d\u043e\u0457 \u0442\u0440\u0430\u0432\u043c\u0430\u0442\u043e\u043b\u043e\u0433\u0456\u0457", "is_synthetic": false}}, {"type": "Feature", "geometry": {"type": "Point", "coordinates": [30.5361863, 50.443455]}, "properties": {"osm_id": "node/12955109272", "type": "hospital", "name": "hospital", "is_synthetic": false}}, {"type": "Feature", "geometry": {"type": "Point", "coordinates": [30.529193251242315, 50.438905331478566]}, "properties": {"osm_id": "relation/4066837", "type": "hospital", "name": "\u0421\u0432\u044f\u0442\u043e-\u041c\u0438\u0445\u0430\u0439\u043b\u0456\u0432\u0441\u044c\u043a\u0430 \u043a\u043b\u0456\u043d\u0456\u0447\u043d\u0430 \u043b\u0456\u043a\u0430\u0440\u043d\u044f", "is_synthetic": false}}, {"type": "Feature", "geometry": {"type": "Point", "coordinates": [30.50051705053582, 50.45100687984694]}, "properties": {"osm_id": "relation/5147905", "type": "hospital", "name": "\u0406\u043d\u0441\u0442\u0438\u0442\u0443\u0442 \u0442\u0440\u0430\u0432\u043c\u0430\u0442\u043e\u043b\u043e\u0433\u0456\u0457 \u0442\u0430 \u043e\u0440\u0442\u043e\u043f\u0435\u0434\u0456\u0457", "is_synthetic": false}}, {"type": "Feature", "geometry": {"type": "Point", "coordinates": [30.499186436445914, 50.453813999240246]}, "properties": {"osm_id": "relation/5147956", "type": "hospital", "name": "\u0406\u043d\u0441\u0442\u0438\u0442\u0443\u0442 \u0443\u0440\u043e\u043b\u043e\u0433\u0456\u0457", "is_synthetic": false}}, {"type": "Feature", "geometry": {"type": "Point", "coordinates": [30.536036194301726, 50.44352972040599]}, "properties": {"osm_id": "relation/5169612", "type": "hospital", "name": "\u0426\u0435\u043d\u0442\u0440\u0430\u043b\u044c\u043d\u0438\u0439 \u0433\u043e\u0441\u043f\u0456\u0442\u0430\u043b\u044c \u0421\u0411\u0423", "is_synthetic": false}}, {"type": "Feature", "geometry": {"type": "Point", "coordinates": [30.52129403988548, 50.46581910790541]}, "properties": {"osm_id": "relation/12017907", "type": "hospital", "name": "Unnamed hospital", "is_synthetic": false}}, {"type": "Feature", "geometry": {"type": "Point", "coordinates": [30.521673572678583, 50.46508111679091]}, "properties": {"osm_id": "relation/12017908", "type": "hospital", "name": "\u041a\u043b\u0456\u043d\u0456\u0447\u043d\u0430 \u043b\u0456\u043a\u0430\u0440\u043d\u044f \u211615 \u041f\u043e\u0434\u0456\u043b\u044c\u0441\u044c\u043a\u043e\u0433\u043e \u0440\u0430\u0439\u043e\u043d\u0443", "is_synthetic": false}}, {"type": "Feature", "geometry": {"type": "Point", "coordinates": [30.530762032249356, 50.431054668953024]}, "properties": {"osm_id": "way/222566814", "type": "hospital", "name": "\u0413\u043e\u043b\u043e\u0432\u043d\u0438\u0439 \u0432\u0456\u0439\u0441\u044c\u043a\u043e\u0432\u0438\u0439 \u043a\u043b\u0456\u043d\u0456\u0447\u043d\u0438\u0439 \u0433\u043e\u0441\u043f\u0456\u0442\u0430\u043b\u044c", "is_synthetic": false}}, {"type": "Feature", "geometry": {"type": "Point", "coordinates": [30.540287551619322, 50.4379872278458]}, "properties": {"osm_id": "way/346966643", "type": "hospital", "name": "\u0426\u0435\u043d\u0442\u0440 \u0435\u043d\u0434\u043e\u043a\u0440\u0438\u043d\u043d\u043e\u0457 \u0445\u0456\u0440\u0443\u0440\u0433\u0456\u0457", "is_synthetic": false}}, {"type": "Feature", "geometry": {"type": "Point", "coordinates": [30.5389681593559, 50.42945321464075]}, "properties": {"osm_id": "way/438649004", "type": "hospital", "name": "\u041a\u0438\u0457\u0432\u0441\u044c\u043a\u0438\u0439 \u043c\u0456\u0441\u044c\u043a\u0438\u0439 \u043f\u043e\u043b\u043e\u0433\u043e\u0432\u0438\u0439 \u0431\u0443\u0434\u0438\u043d\u043e\u043a \u21161", "is_synthetic": false}}, {"type": "Feature", "geometry": {"type": "Point", "coordinates": [30.509946383468808, 50.44340981001087]}, "properties": {"osm_id": "way/594950526", "type": "hospital", "name": "\u041a\u0438\u0457\u0432\u0441\u044c\u043a\u0430 \u043c\u0456\u0441\u044c\u043a\u0430 \u043a\u043b\u0456\u043d\u0456\u0447\u043d\u0430 \u043b\u0456\u043a\u0430\u0440\u043d\u044f \u211618", "is_synthetic": false}}, {"type": "Feature", "geometry": {"type": "Point", "coordinates": [30.514326837581923, 50.44017990498312]}, "properties": {"osm_id": "way/684799980", "type": "hospital", "name": "\u0414\u0438\u0442\u044f\u0447\u0430 \u043a\u043b\u0456\u043d\u0456\u0447\u043d\u0430 \u043b\u0456\u043a\u0430\u0440\u043d\u044f \u2116 6", "is_synthetic": false}}, {"type": "Feature", "geometry": {"type": "Point", "coordinates": [30.50141972944881, 50.446911567218486]}, "properties": {"osm_id": "way/715548454", "type": "hospital", "name": "\u041a\u0438\u0457\u0432\u0441\u044c\u043a\u0430 \u043a\u043b\u0456\u043d\u0456\u0447\u043d\u0430 \u043b\u0456\u043a\u0430\u0440\u043d\u044f \u043d\u0430 \u0437\u0430\u043b\u0456\u0437\u043d\u0438\u0447\u043d\u043e\u043c\u0443 \u0442\u0440\u0430\u043d\u0441\u043f\u043e\u0440\u0442\u0456 \u21161", "is_synthetic": false}}, {"type": "Feature", "geometry": {"type": "Point", "coordinates": [30.49775241073931, 50.45381525293924]}, "properties": {"osm_id": "way/719258200", "type": "hospital", "name": "\u0423\u043d\u0456\u0432\u0435\u0440\u0441\u0438\u0442\u0435\u0442\u0441\u044c\u043a\u0430 \u043a\u043b\u0456\u043d\u0456\u043a\u0430 \u041d\u041c\u0423 \u0456\u043c. \u041e.\u041e. \u0411\u043e\u0433\u043e\u043c\u043e\u043b\u044c\u0446\u044f", "is_synthetic": false}}, {"type": "Feature", "geometry": {"type": "Point", "coordinates": [30.506386641328614, 50.460301728683575]}, "properties": {"osm_id": "way/742323496", "type": "hospital", "name": "\u0426\u0435\u043d\u0442\u0440 \u0456\u043d\u043d\u043e\u0432\u0430\u0446\u0456\u0439\u043d\u0438\u0445 \u043c\u0435\u0434\u0438\u0447\u043d\u0438\u0445 \u0442\u0435\u0445\u043d\u043e\u043b\u043e\u0433\u0456\u0439", "is_synthetic": false}}, {"type": "Feature", "geometry": {"type": "Point", "coordinates": [30.510645572041124, 50.45271357040296]}, "properties": {"osm_id": "way/864495837", "type": "hospital", "name": "\u041a\u0438\u0457\u0432\u0441\u044c\u043a\u0438\u0439 \u043c\u0456\u0441\u044c\u043a\u0438\u0439 \u043a\u043b\u0456\u043d\u0456\u0447\u043d\u0438\u0439 \u0435\u043d\u0434\u043e\u043a\u0440\u0438\u043d\u043e\u043b\u043e\u0433\u0456\u0447\u043d\u0438\u0439 \u0446\u0435\u043d\u0442\u0440", "is_synthetic": false}}, {"type": "Feature", "geometry": {"type": "Point", "coordinates": [30.547533600147545, 50.45970506457474]}, "properties": {"osm_id": null, "type": "shelter", "name": "Synthetic community shelter #1", "is_synthetic": true}}, {"type": "Feature", "geometry": {"type": "Point", "coordinates": [30.51338462804005, 50.44993495665119]}, "properties": {"osm_id": null, "type": "shelter", "name": "Synthetic community shelter #2", "is_synthetic": true}}, {"type": "Feature", "geometry": {"type": "Point", "coordinates": [30.4998405723153, 50.44155018280479]}, "properties": {"osm_id": null, "type": "shelter", "name": "Synthetic community shelter #3", "is_synthetic": true}}, {"type": "Feature", "geometry": {"type": "Point", "coordinates": [30.537173350000003, 50.44165009999999]}, "properties": {"osm_id": null, "type": "shelter", "name": "Synthetic community shelter #4", "is_synthetic": true}}, {"type": "Feature", "geometry": {"type": "Point", "coordinates": [30.527891250736523, 50.44991936984323]}, "properties": {"osm_id": null, "type": "shelter", "name": "Synthetic community shelter #5", "is_synthetic": true}}, {"type": "Feature", "geometry": {"type": "Point", "coordinates": [30.5030383, 50.4542969]}, "properties": {"osm_id": "node/3489940106", "type": "charging_heating", "name": "\u041b\u044c\u0432\u0456\u0432\u0441\u044c\u043a\u0430 \u0431\u0440\u0430\u043c\u0430", "is_synthetic": false}}, {"type": "Feature", "geometry": {"type": "Point", "coordinates": [30.5454331, 50.4444878]}, "properties": {"osm_id": "node/3804612585", "type": "charging_heating", "name": "\u0410\u0440\u0441\u0435\u043d\u0430\u043b\u044c\u043d\u0430", "is_synthetic": false}}, {"type": "Feature", "geometry": {"type": "Point", "coordinates": [30.5058928, 50.4442469]}, "properties": {"osm_id": "node/3806362030", "type": "charging_heating", "name": "\u0423\u043d\u0456\u0432\u0435\u0440\u0441\u0438\u0442\u0435\u0442", "is_synthetic": false}}, {"type": "Feature", "geometry": {"type": "Point", "coordinates": [30.5243006, 50.4587207]}, "properties": {"osm_id": "node/4762911230", "type": "charging_heating", "name": "\u041d\u0438\u0436\u043d\u044f \u0441\u0442\u0430\u043d\u0446\u0456\u044f", "is_synthetic": false}}, {"type": "Feature", "geometry": {"type": "Point", "coordinates": [30.5208694, 50.4382891]}, "properties": {"osm_id": "node/5267935778", "type": "charging_heating", "name": "\u041f\u0430\u043b\u0430\u0446 \u0441\u043f\u043e\u0440\u0442\u0443", "is_synthetic": false}}, {"type": "Feature", "geometry": {"type": "Point", "coordinates": [30.5150809, 50.4658354]}, "properties": {"osm_id": "node/7104807495", "type": "charging_heating", "name": "\u041a\u043e\u043d\u0442\u0440\u0430\u043a\u0442\u043e\u0432\u0430 \u043f\u043b\u043e\u0449\u0430", "is_synthetic": false}}, {"type": "Feature", "geometry": {"type": "Point", "coordinates": [30.5134785, 50.4482462]}, "properties": {"osm_id": "node/7160992960", "type": "charging_heating", "name": "\u0417\u043e\u043b\u043e\u0442\u0456 \u0432\u043e\u0440\u043e\u0442\u0430", "is_synthetic": false}}, {"type": "Feature", "geometry": {"type": "Point", "coordinates": [30.5166416, 50.4394165]}, "properties": {"osm_id": "node/7161002666", "type": "charging_heating", "name": "\u041f\u043b\u043e\u0449\u0430 \u0423\u043a\u0440\u0430\u0457\u043d\u0441\u044c\u043a\u0438\u0445 \u0413\u0435\u0440\u043e\u0457\u0432", "is_synthetic": false}}, {"type": "Feature", "geometry": {"type": "Point", "coordinates": [30.5180449, 50.44521]}, "properties": {"osm_id": "node/7161002667", "type": "charging_heating", "name": "\u0422\u0435\u0430\u0442\u0440\u0430\u043b\u044c\u043d\u0430", "is_synthetic": false}}, {"type": "Feature", "geometry": {"type": "Point", "coordinates": [30.5319209, 50.4369287]}, "properties": {"osm_id": "node/7218139984", "type": "charging_heating", "name": "\u041a\u043b\u043e\u0432\u0441\u044c\u043a\u0430", "is_synthetic": false}}, {"type": "Feature", "geometry": {"type": "Point", "coordinates": [30.5035508, 50.4300015]}, "properties": {"osm_id": "node/8569669279", "type": "charging_heating", "name": "\u041a\u0438\u0457\u0432-\u0422\u043e\u0432\u0430\u0440\u043d\u0438\u0439", "is_synthetic": false}}, {"type": "Feature", "geometry": {"type": "Point", "coordinates": [30.5244408, 50.4499356]}, "properties": {"osm_id": "node/9151090552", "type": "charging_heating", "name": "\u041c\u0430\u0439\u0434\u0430\u043d \u041d\u0435\u0437\u0430\u043b\u0435\u0436\u043d\u043e\u0441\u0442\u0456", "is_synthetic": false}}, {"type": "Feature", "geometry": {"type": "Point", "coordinates": [30.5229456, 50.4471871]}, "properties": {"osm_id": "node/9151108492", "type": "charging_heating", "name": "\u0425\u0440\u0435\u0449\u0430\u0442\u0438\u043a", "is_synthetic": false}}, {"type": "Feature", "geometry": {"type": "Point", "coordinates": [30.5248945, 50.4587762]}, "properties": {"osm_id": "node/10726000866", "type": "charging_heating", "name": "\u041f\u043e\u0448\u0442\u043e\u0432\u0430 \u043f\u043b\u043e\u0449\u0430", "is_synthetic": false}}, {"type": "Feature", "geometry": {"type": "Point", "coordinates": [30.5164035, 50.4322821]}, "properties": {"osm_id": "node/10726000867", "type": "charging_heating", "name": "\u041e\u043b\u0456\u043c\u043f\u0456\u0439\u0441\u044c\u043a\u0430", "is_synthetic": false}}, {"type": "Feature", "geometry": {"type": "Point", "coordinates": [30.5229245, 50.4569392]}, "properties": {"osm_id": "node/11287959817", "type": "charging_heating", "name": "\u0412\u0435\u0440\u0445\u043d\u044f \u0441\u0442\u0430\u043d\u0446\u0456\u044f", "is_synthetic": false}}]}