{"type": "FeatureCollection", "features": [{"type": "Feature", "geometry": {"type": "Point", "coordinates": [30.5049735, 50.4347316]}, "properties": {"osm_node_id": 10980673}}, {"type": "Feature", "geometry": {"type": "Point", "coordinates": [30.5058143, 50.434553]}, "properties": {"osm_node_id": 10980674}}, {"type": "Feature", "geometry": {"type": "Point", "coordinates": [30.5184269, 50.4359458]}, "properties": {"osm_node_id": 10980679}}, {"type": "Feature", "geometry": {"type": "Point", "coordinates": [30.5398227, 50.4453079]}, "properties": {"osm_node_id": 10980710}}, {"type": "Feature", "geometry": {"type": "Point", "coordinates": [30.545427, 50.4437681]}, "properties": {"osm_node_id": 10980713}}, {"type": "Feature", "geometry": {"type": "Point", "coordinates": [30.4950471, 50.4428743]}, "properties": {"osm_node_id": 26051762}}, {"type": "Feature", "geometry": {"type": "Point", "coordinates": [30.5160519, 50.4339459]}, "properties": {"osm_node_id": 26201247}}, {"type": "Feature", "geometry": {"type": "Point", "coordinates": [30.5093674, 50.4359968]}, "properties": {"osm_node_id": 26201251}}, {"type": "Feature", "geometry": {"type": "Point", "coordinates": [30.5159059, 50.439529]}, "properties": {"osm_node_id": 26201257}}, {"type": "Feature", "geometry": {"type": "Point", "coordinates": [30.5160244, 50.4359495]}, "properties": {"osm_node_id": 26201261}}, {"type": "Feature", "geometry": {"type": "Point", "coordinates": [30.508649, 50.4468065]}, "properties": {"osm_node_id": 26201274}}, {"type": "Feature", "geometry": {"type": "Point", "coordinates": [30.5133982, 50.4460369]}, "properties": {"osm_node_id": 26201275}}, {"type": "Feature", "geometry": {"type": "Point", "coordinates": [30.5159172, 50.4456267]}, "properties": {"osm_node_id": 26201276}}, {"type": "Feature", "geometry": {"type": "Point", "coordinates": [30.5181913, 50.4452609]}, "properties": {"osm_node_id": 26201277}}, {"type": "Feature", "geometry": {"type": "Point", "coordinates": [30.5155156, 50.451292]}, "properties": {"osm_node_id": 26201279}}, {"type": "Feature", "geometry": {"type": "Point", "coordinates": [30.5145758, 50.4489393]}, "properties": {"osm_node_id": 26201280}}, {"type": "Feature", "geometry": {"type": "Point", "coordinates": [30.5170542, 50.4537328]}, "properties": {"osm_node_id": 26201287}}, {"type": "Feature", "geometry": {"type": "Point", "coordinates": [30.5166829, 50.4541044]}, "properties": {"osm_node_id": 26201288}}, {"type": "Feature", "geometry": {"type": "Point", "coordinates": [30.5198257, 50.4548507]}, "properties": {"osm_node_id": 26201289}}, {"type": "Feature", "geometry": {"type": "Point", "coordinates": [30.5171211, 50.4554032]}, "properties": {"osm_node_id": 26201292}}, {"type": "Feature", "geometry": {"type": "Point", "coordinates": [30.5065772, 50.4364592]}, "properties": {"osm_node_id": 26201486}}, {"type": "Feature", "geometry": {"type": "Point", "coordinates": [30.5211646, 50.4384265]}, "properties": {"osm_node_id": 26201488}}, {"type": "Feature", "geometry": {"type": "Point", "coordinates": [30.5124764, 50.4437076]}, "properties": {"osm_node_id": 26201528}}, {"type": "Feature", "geometry": {"type": "Point", "coordinates": [30.5161042, 50.4526843]}, "properties": {"osm_node_id": 26201531}}, {"type": "Feature", "geometry": {"type": "Point", "coordinates": [30.5182689, 50.4583403]}, "properties": {"osm_node_id": 26201544}}, {"type": "Feature", "geometry": {"type": "Point", "coordinates": [30.5199672, 50.455261]}, "properties": {"osm_node_id": 26201546}}, {"type": "Feature", "geometry": {"type": "Point", "coordinates": [30.5244022, 50.4593468]}, "properties": {"osm_node_id": 26201571}}, {"type": "Feature", "geometry": {"type": "Point", "coordinates": [30.5128839, 50.4663101]}, "properties": {"osm_node_id": 26201587}}, {"type": "Feature", "geometry": {"type": "Point", "coordinates": [30.5142349, 50.4676355]}, "properties": {"osm_node_id": 26201589}}, {"type": "Feature", "geometry": {"type": "Point", "coordinates": [30.5145539, 50.467443]}, "properties": {"osm_node_id": 26201590}}, {"type": "Feature", "geometry": {"type": "Point", "coordinates": [30.5195552, 50.4671851]}, "properties": {"osm_node_id": 26201595}}, {"type": "Feature", "geometry": {"type": "Point", "coordinates": [30.5209969, 50.4662825]}, "properties": {"osm_node_id": 26201596}}, {"type": "Feature", "geometry": {"type": "Point", "coordinates": [30.5078821, 50.4326138]}, "properties": {"osm_node_id": 26228241}}, {"type": "Feature", "geometry": {"type": "Point", "coordinates": [30.5085708, 50.4340874]}, "properties": {"osm_node_id": 26228242}}, {"type": "Feature", "geometry": {"type": "Point", "coordinates": [30.528246, 50.4519134]}, "properties": {"osm_node_id": 26228424}}, {"type": "Feature", "geometry": {"type": "Point", "coordinates": [30.5198529, 50.4408232]}, "properties": {"osm_node_id": 26228435}}, {"type": "Feature", "geometry": {"type": "Point", "coordinates": [30.5159386, 50.4389109]}, "properties": {"osm_node_id": 26228436}}, {"type": "Feature", "geometry": {"type": "Point", "coordinates": [30.5203433, 50.439121]}, "properties": {"osm_node_id": 26228437}}, {"type": "Feature", "geometry": {"type": "Point", "coordinates": [30.5379124, 50.4386293]}, "properties": {"osm_node_id": 26228439}}, {"type": "Feature", "geometry": {"type": "Point", "coordinates": [30.5318001, 50.43706]}, "properties": {"osm_node_id": 26228440}}, {"type": "Feature", "geometry": {"type": "Point", "coordinates": [30.518974, 50.4545132]}, "properties": {"osm_node_id": 26303122}}, {"type": "Feature", "geometry": {"type": "Point", "coordinates": [30.5216228, 50.45372]}, "properties": {"osm_node_id": 26303123}}, {"type": "Feature", "geometry": {"type": "Point", "coordinates": [30.5201761, 50.4532132]}, "properties": {"osm_node_id": 26303124}}, {"type": "Feature", "geometry": {"type": "Point", "coordinates": [30.5183916, 50.4521476]}, "properties": {"osm_node_id": 26303135}}, {"type": "Feature", "geometry": {"type": "Point", "coordinates": [30.5136907, 50.4546758]}, "properties": {"osm_node_id": 26303143}}, {"type": "Feature", "geometry": {"type": "Point", "coordinates": [30.5180204, 50.4513808]}, "properties": {"osm_node_id": 26303156}}, {"type": "Feature", "geometry": {"type": "Point", "coordinates": [30.5198902, 50.4509856]}, "properties": {"osm_node_id": 26303159}}, {"type": "Feature", "geometry": {"type": "Point", "coordinates": [30.5172168, 50.4496585]}, "properties": {"osm_node_id": 26303162}}, {"type": "Feature", "geometry": {"type": "Point", "coordinates": [30.525482, 50.4534734]}, "properties": {"osm_node_id": 26303179}}, {"type": "Feature", "geometry": {"type": "Point", "coordinates": [30.5149993, 50.4500127]}, "properties": {"osm_node_id": 26303203}}, {"type": "Feature", "geometry": {"type": "Point", "coordinates": [30.4970439, 50.4437214]}, "properties": {"osm_node_id": 26303477}}, {"type": "Feature", "geometry": {"type": "Point", "coordinates": [30.4997485, 50.4411651]}, "properties": {"osm_node_id": 26303483}}, {"type": "Feature", "geometry": {"type": "Point", "coordinates": [30.5450063, 50.4429688]}, "properties": {"osm_node_id": 26304257}}, {"type": "Feature", "geometry": {"type": "Point", "coordinates": [30.5449091, 50.4359492]}, "properties": {"osm_node_id": 26304258}}, {"type": "Feature", "geometry": {"type": "Point", "coordinates": [30.5449853, 50.4324896]}, "properties": {"osm_node_id": 26304267}}, {"type": "Feature", "geometry": {"type": "Point", "coordinates": [30.5351433, 50.4305179]}, "properties": {"osm_node_id": 26304298}}, {"type": "Feature", "geometry": {"type": "Point", "coordinates": [30.5218736, 50.4631639]}, "properties": {"osm_node_id": 26318785}}, {"type": "Feature", "geometry": {"type": "Point", "coordinates": [30.5233566, 50.4621842]}, "properties": {"osm_node_id": 26318786}}, {"type": "Feature", "geometry": {"type": "Point", "coordinates": [30.5254648, 50.463195]}, "properties": {"osm_node_id": 26318787}}, {"type": "Feature", "geometry": {"type": "Point", "coordinates": [30.5246728, 50.4612973]}, "properties": {"osm_node_id": 26318788}}, {"type": "Feature", "geometry": {"type": "Point", "coordinates": [30.520617, 50.4639836]}, "properties": {"osm_node_id": 26318791}}, {"type": "Feature", "geometry": {"type": "Point", "coordinates": [30.5150341, 50.4624847]}, "properties": {"osm_node_id": 26318793}}, {"type": "Feature", "geometry": {"type": "Point", "coordinates": [30.5258475, 50.4614202]}, "properties": {"osm_node_id": 26318794}}, {"type": "Feature", "geometry": {"type": "Point", "coordinates": [30.5171995, 50.4631283]}, "properties": {"osm_node_id": 26318819}}, {"type": "Feature", "geometry": {"type": "Point", "coordinates": [30.5021515, 50.4564385]}, "properties": {"osm_node_id": 26318822}}, {"type": "Feature", "geometry": {"type": "Point", "coordinates": [30.5018422, 50.4564871]}, "properties": {"osm_node_id": 26318823}}, {"type": "Feature", "geometry": {"type": "Point", "coordinates": [30.4974649, 50.4563463]}, "properties": {"osm_node_id": 26318824}}, {"type": "Feature", "geometry": {"type": "Point", "coordinates": [30.5047804, 50.4557232]}, "properties": {"osm_node_id": 26318827}}, {"type": "Feature", "geometry": {"type": "Point", "coordinates": [30.5073728, 50.4552438]}, "properties": {"osm_node_id": 26318835}}, {"type": "Feature", "geometry": {"type": "Point", "coordinates": [30.5137901, 50.4554051]}, "properties": {"osm_node_id": 26322660}}, {"type": "Feature", "geometry": {"type": "Point", "coordinates": [30.5216861, 50.4611127]}, "properties": {"osm_node_id": 26322726}}, {"type": "Feature", "geometry": {"type": "Point", "coordinates": [30.5164333, 50.4640587]}, "properties": {"osm_node_id": 26322786}}, {"type": "Feature", "geometry": {"type": "Point", "coordinates": [30.5173506, 50.4657274]}, "properties": {"osm_node_id": 26322808}}, {"type": "Feature", "geometry": {"type": "Point", "coordinates": [30.518225, 50.46519]}, "properties": {"osm_node_id": 26322811}}, {"type": "Feature", "geometry": {"type": "Point", "coordinates": [30.5226364, 50.4652643]}, "properties": {"osm_node_id": 26322822}}, {"type": "Feature", "geometry": {"type": "Point", "coordinates": [30.5239473, 50.4644476]}, "properties": {"osm_node_id": 26322826}}, {"type": "Feature", "geometry": {"type": "Point", "coordinates": [30.5251929, 50.4645624]}, "properties": {"osm_node_id": 26322832}}, {"type": "Feature", "geometry": {"type": "Point", "coordinates": [30.5159089, 50.4666054]}, "properties": {"osm_node_id": 26322885}}, {"type": "Feature", "geometry": {"type": "Point", "coordinates": [30.5109573, 50.4650335]}, "properties": {"osm_node_id": 26322889}}, {"type": "Feature", "geometry": {"type": "Point", "coordinates": [30.5091131, 50.4661738]}, "properties": {"osm_node_id": 26322892}}, {"type": "Feature", "geometry": {"type": "Point", "coordinates": [30.5123709, 50.4641978]}, "properties": {"osm_node_id": 26322925}}, {"type": "Feature", "geometry": {"type": "Point", "coordinates": [30.5110893, 50.4674128]}, "properties": {"osm_node_id": 26323057}}, {"type": "Feature", "geometry": {"type": "Point", "coordinates": [30.5225581, 50.4673177]}, "properties": {"osm_node_id": 26323109}}, {"type": "Feature", "geometry": {"type": "Point", "coordinates": [30.5142471, 50.465482]}, "properties": {"osm_node_id": 26323186}}, {"type": "Feature", "geometry": {"type": "Point", "coordinates": [30.5193517, 50.448163]}, "properties": {"osm_node_id": 26325903}}, {"type": "Feature", "geometry": {"type": "Point", "coordinates": [30.5167784, 50.4485806]}, "properties": {"osm_node_id": 26325907}}, {"type": "Feature", "geometry": {"type": "Point", "coordinates": [30.5082012, 50.4675589]}, "properties": {"osm_node_id": 26335844}}, {"type": "Feature", "geometry": {"type": "Point", "coordinates": [30.5098695, 50.4666587]}, "properties": {"osm_node_id": 26335845}}, {"type": "Feature", "geometry": {"type": "Point", "coordinates": [30.5136232, 50.4651982]}, "properties": {"osm_node_id": 26336879}}, {"type": "Feature", "geometry": {"type": "Point", "coordinates": [30.4977371, 50.4403067]}, "properties": {"osm_node_id": 26337558}}, {"type": "Feature", "geometry": {"type": "Point", "coordinates": [30.5026915, 50.4389411]}, "properties": {"osm_node_id": 26337690}}, {"type": "Feature", "geometry": {"type": "Point", "coordinates": [30.5008044, 50.4379109]}, "properties": {"osm_node_id": 26337692}}, {"type": "Feature", "geometry": {"type": "Point", "coordinates": [30.504787, 50.4400781]}, "properties": {"osm_node_id": 26337696}}, {"type": "Feature", "geometry": {"type": "Point", "coordinates": [30.5248123, 50.4663572]}, "properties": {"osm_node_id": 26394235}}, {"type": "Feature", "geometry": {"type": "Point", "coordinates": [30.4952482, 50.462493]}, "properties": {"osm_node_id": 26409153}}, {"type": "Feature", "geometry": {"type": "Point", "coordinates": [30.4988792, 50.4644233]}, "properties": {"osm_node_id": 26409171}}, {"type": "Feature", "geometry": {"type": "Point", "coordinates": [30.5011774, 50.4648037]}, "properties": {"osm_node_id": 26409172}}, {"type": "Feature", "geometry": {"type": "Point", "coordinates": [30.5112341, 50.4541208]}, "properties": {"osm_node_id": 26546015}}, {"type": "Feature", "geometry": {"type": "Point", "coordinates": [30.5124159, 50.4537973]}, "properties": {"osm_node_id": 26546017}}, {"type": "Feature", "geometry": {"type": "Point", "coordinates": [30.5094995, 50.4527739]}, "properties": {"osm_node_id": 26546020}}, {"type": "Feature", "geometry": {"type": "Point", "coordinates": [30.5108553, 50.4519344]}, "properties": {"osm_node_id": 26546021}}, {"type": "Feature", "geometry": {"type": "Point", "coordinates": [30.5086159, 50.4521177]}, "properties": {"osm_node_id": 26546022}}, {"type": "Feature", "geometry": {"type": "Point", "coordinates": [30.5095832, 50.4489677]}, "properties": {"osm_node_id": 26546037}}, {"type": "Feature", "geometry": {"type": "Point", "coordinates": [30.5059144, 50.4543626]}, "properties": {"osm_node_id": 26546040}}, {"type": "Feature", "geometry": {"type": "Point", "coordinates": [30.5010296, 50.4523261]}, "properties": {"osm_node_id": 26546052}}, {"type": "Feature", "geometry": {"type": "Point", "coordinates": [30.5116468, 50.4553343]}, "properties": {"osm_node_id": 26546063}}, {"type": "Feature", "geometry": {"type": "Point", "coordinates": [30.5134348, 50.4491266]}, "properties": {"osm_node_id": 26546084}}, {"type": "Feature", "geometry": {"type": "Point", "coordinates": [30.5176943, 50.4508328]}, "properties": {"osm_node_id": 26546092}}, {"type": "Feature", "geometry": {"type": "Point", "coordinates": [30.5070478, 50.4470694]}, "properties": {"osm_node_id": 26546136}}, {"type": "Feature", "geometry": {"type": "Point", "coordinates": [30.503875, 50.4475984]}, "properties": {"osm_node_id": 26546137}}, {"type": "Feature", "geometry": {"type": "Point", "coordinates": [30.5036534, 50.4492493]}, "properties": {"osm_node_id": 26546182}}, {"type": "Feature", "geometry": {"type": "Point", "coordinates": [30.5029541, 50.4501624]}, "properties": {"osm_node_id": 26546187}}, {"type": "Feature", "geometry": {"type": "Point", "coordinates": [30.5007903, 50.4522237]}, "properties": {"osm_node_id": 26546188}}, {"type": "Feature", "geometry": {"type": "Point", "coordinates": [30.4964458, 50.4503694]}, "properties": {"osm_node_id": 26546193}}, {"type": "Feature", "geometry": {"type": "Point", "coordinates": [30.5098785, 50.4511171]}, "properties": {"osm_node_id": 26546241}}, {"type": "Feature", "geometry": {"type": "Point", "coordinates": [30.5114734, 50.4525499]}, "properties": {"osm_node_id": 26546242}}, {"type": "Feature", "geometry": {"type": "Point", "coordinates": [30.505682, 50.4570689]}, "properties": {"osm_node_id": 26546255}}, {"type": "Feature", "geometry": {"type": "Point", "coordinates": [30.505807, 50.4572608]}, "properties": {"osm_node_id": 26546258}}, {"type": "Feature", "geometry": {"type": "Point", "coordinates": [30.5191434, 50.4528624]}, "properties": {"osm_node_id": 26546272}}, {"type": "Feature", "geometry": {"type": "Point", "coordinates": [30.5179583, 50.4541048]}, "properties": {"osm_node_id": 26546273}}, {"type": "Feature", "geometry": {"type": "Point", "coordinates": [30.5274627, 50.4465121]}, "properties": {"osm_node_id": 26546297}}, {"type": "Feature", "geometry": {"type": "Point", "coordinates": [30.5263972, 50.447614]}, "properties": {"osm_node_id": 26546299}}, {"type": "Feature", "geometry": {"type": "Point", "coordinates": [30.5253831, 50.4467042]}, "properties": {"osm_node_id": 26546300}}, {"type": "Feature", "geometry": {"type": "Point", "coordinates": [30.526928, 50.446049]}, "properties": {"osm_node_id": 26546302}}, {"type": "Feature", "geometry": {"type": "Point", "coordinates": [30.5362453, 50.4449963]}, "properties": {"osm_node_id": 26546409}}, {"type": "Feature", "geometry": {"type": "Point", "coordinates": [30.507197, 50.4380294]}, "properties": {"osm_node_id": 26546429}}, {"type": "Feature", "geometry": {"type": "Point", "coordinates": [30.5014998, 50.4419303]}, "properties": {"osm_node_id": 26546430}}, {"type": "Feature", "geometry": {"type": "Point", "coordinates": [30.5055719, 50.4339943]}, "properties": {"osm_node_id": 26546563}}, {"type": "Feature", "geometry": {"type": "Point", "coordinates": [30.5186709, 50.4319225]}, "properties": {"osm_node_id": 26546617}}, {"type": "Feature", "geometry": {"type": "Point", "coordinates": [30.5250396, 50.4371048]}, "properties": {"osm_node_id": 26546669}}, {"type": "Feature", "geometry": {"type": "Point", "coordinates": [30.532405, 50.4339702]}, "properties": {"osm_node_id": 26546699}}, {"type": "Feature", "geometry": {"type": "Point", "coordinates": [30.5332811, 50.4425911]}, "properties": {"osm_node_id": 26546720}}, {"type": "Feature", "geometry": {"type": "Point", "coordinates": [30.5360653, 50.4401097]}, "properties": {"osm_node_id": 26546727}}, {"type": "Feature", "geometry": {"type": "Point", "coordinates": [30.5336988, 50.4394836]}, "properties": {"osm_node_id": 26546730}}, {"type": "Feature", "geometry": {"type": "Point", "coordinates": [30.5209724, 50.4606835]}, "properties": {"osm_node_id": 140608833}}, {"type": "Feature", "geometry": {"type": "Point", "coordinates": [30.5102501, 50.4465406]}, "properties": {"osm_node_id": 247117094}}, {"type": "Feature", "geometry": {"type": "Point", "coordinates": [30.5190882, 50.4403207]}, "properties": {"osm_node_id": 248772012}}, {"type": "Feature", "geometry": {"type": "Point", "coordinates": [30.5023455, 50.4345468]}, "properties": {"osm_node_id": 248772292}}, {"type": "Feature", "geometry": {"type": "Point", "coordinates": [30.5039861, 50.4354481]}, "properties": {"osm_node_id": 248772293}}, {"type": "Feature", "geometry": {"type": "Point", "coordinates": [30.5028177, 50.434829]}, "properties": {"osm_node_id": 248860364}}, {"type": "Feature", "geometry": {"type": "Point", "coordinates": [30.5086747, 50.4319913]}, "properties": {"osm_node_id": 255019687}}, {"type": "Feature", "geometry": {"type": "Point", "coordinates": [30.5240917, 50.4396375]}, "properties": {"osm_node_id": 255137399}}, {"type": "Feature", "geometry": {"type": "Point", "coordinates": [30.5235599, 50.4395478]}, "properties": {"osm_node_id": 255137401}}, {"type": "Feature", "geometry": {"type": "Point", "coordinates": [30.5226322, 50.4407684]}, "properties": {"osm_node_id": 255137413}}, {"type": "Feature", "geometry": {"type": "Point", "coordinates": [30.5247731, 50.4386855]}, "properties": {"osm_node_id": 255137419}}, {"type": "Feature", "geometry": {"type": "Point", "coordinates": [30.522815, 50.4401535]}, "properties": {"osm_node_id": 255137422}}, {"type": "Feature", "geometry": {"type": "Point", "coordinates": [30.5250487, 50.4384739]}, "properties": {"osm_node_id": 255137424}}, {"type": "Feature", "geometry": {"type": "Point", "coordinates": [30.5160703, 50.4319563]}, "properties": {"osm_node_id": 255141658}}, {"type": "Feature", "geometry": {"type": "Point", "coordinates": [30.5149357, 50.4430548]}, "properties": {"osm_node_id": 255366993}}, {"type": "Feature", "geometry": {"type": "Point", "coordinates": [30.5421849, 50.432261]}, "properties": {"osm_node_id": 256239862}}, {"type": "Feature", "geometry": {"type": "Point", "coordinates": [30.5445609, 50.4320007]}, "properties": {"osm_node_id": 256239863}}, {"type": "Feature", "geometry": {"type": "Point", "coordinates": [30.5422492, 50.4331833]}, "properties": {"osm_node_id": 256239864}}, {"type": "Feature", "geometry": {"type": "Point", "coordinates": [30.5450491, 50.432883]}, "properties": {"osm_node_id": 256239867}}, {"type": "Feature", "geometry": {"type": "Point", "coordinates": [30.5355258, 50.4341351]}, "properties": {"osm_node_id": 256239869}}, {"type": "Feature", "geometry": {"type": "Point", "coordinates": [30.5405999, 50.4333862]}, "properties": {"osm_node_id": 256239870}}, {"type": "Feature", "geometry": {"type": "Point", "coordinates": [30.5403556, 50.4323327]}, "properties": {"osm_node_id": 256239942}}, {"type": "Feature", "geometry": {"type": "Point", "coordinates": [30.543036, 50.4308674]}, "properties": {"osm_node_id": 256239961}}, {"type": "Feature", "geometry": {"type": "Point", "coordinates": [30.5450711, 50.4334428]}, "properties": {"osm_node_id": 256254227}}, {"type": "Feature", "geometry": {"type": "Point", "coordinates": [30.5402377, 50.4358495]}, "properties": {"osm_node_id": 256254233}}, {"type": "Feature", "geometry": {"type": "Point", "coordinates": [30.5321497, 50.4359285]}, "properties": {"osm_node_id": 256254249}}, {"type": "Feature", "geometry": {"type": "Point", "coordinates": [30.5386864, 50.436161]}, "properties": {"osm_node_id": 256343530}}, {"type": "Feature", "geometry": {"type": "Point", "coordinates": [30.542053, 50.4364798]}, "properties": {"osm_node_id": 256343532}}, {"type": "Feature", "geometry": {"type": "Point", "coordinates": [30.5380747, 50.4440007]}, "properties": {"osm_node_id": 256367001}}, {"type": "Feature", "geometry": {"type": "Point", "coordinates": [30.5349376, 50.4417366]}, "properties": {"osm_node_id": 256367088}}, {"type": "Feature", "geometry": {"type": "Point", "coordinates": [30.5265696, 50.4426545]}, "properties": {"osm_node_id": 256409519}}, {"type": "Feature", "geometry": {"type": "Point", "coordinates": [30.5272417, 50.4437942]}, "properties": {"osm_node_id": 256409793}}, {"type": "Feature", "geometry": {"type": "Point", "coordinates": [30.5450522, 50.4350014]}, "properties": {"osm_node_id": 256415996}}, {"type": "Feature", "geometry": {"type": "Point", "coordinates": [30.5416271, 50.4356071]}, "properties": {"osm_node_id": 256546177}}, {"type": "Feature", "geometry": {"type": "Point", "coordinates": [30.5161531, 50.4632139]}, "properties": {"osm_node_id": 256568234}}, {"type": "Feature", "geometry": {"type": "Point", "coordinates": [30.5161225, 50.4633124]}, "properties": {"osm_node_id": 256568254}}, {"type": "Feature", "geometry": {"type": "Point", "coordinates": [30.5167846, 50.4636398]}, "properties": {"osm_node_id": 256568258}}, {"type": "Feature", "geometry": {"type": "Point", "coordinates": [30.5389885, 50.4302498]}, "properties": {"osm_node_id": 256570943}}, {"type": "Feature", "geometry": {"type": "Point", "coordinates": [30.5482681, 50.4327834]}, "properties": {"osm_node_id": 256879791}}, {"type": "Feature", "geometry": {"type": "Point", "coordinates": [30.512582, 50.4492598]}, "properties": {"osm_node_id": 259159431}}, {"type": "Feature", "geometry": {"type": "Point", "coordinates": [30.5114644, 50.4463463]}, "properties": {"osm_node_id": 259159432}}, {"type": "Feature", "geometry": {"type": "Point", "coordinates": [30.5487968, 50.430987]}, "properties": {"osm_node_id": 268437602}}, {"type": "Feature", "geometry": {"type": "Point", "coordinates": [30.5447213, 50.4392187]}, "properties": {"osm_node_id": 268442486}}, {"type": "Feature", "geometry": {"type": "Point", "coordinates": [30.5475946, 50.4383427]}, "properties": {"osm_node_id": 268442488}}, {"type": "Feature", "geometry": {"type": "Point", "coordinates": [30.5447437, 50.4385071]}, "properties": {"osm_node_id": 268442491}}, {"type": "Feature", "geometry": {"type": "Point", "coordinates": [30.5473856, 50.4385243]}, "properties": {"osm_node_id": 268442492}}, {"type": "Feature", "geometry": {"type": "Point", "coordinates": [30.5465287, 50.4372433]}, "properties": {"osm_node_id": 268442494}}, {"type": "Feature", "geometry": {"type": "Point", "coordinates": [30.5273243, 50.4404297]}, "properties": {"osm_node_id": 268448858}}, {"type": "Feature", "geometry": {"type": "Point", "coordinates": [30.5262889, 50.437584]}, "properties": {"osm_node_id": 268546975}}, {"type": "Feature", "geometry": {"type": "Point", "coordinates": [30.5296991, 50.4341757]}, "properties": {"osm_node_id": 268558499}}, {"type": "Feature", "geometry": {"type": "Point", "coordinates": [30.5302713, 50.4344725]}, "properties": {"osm_node_id": 268558501}}, {"type": "Feature", "geometry": {"type": "Point", "coordinates": [30.5410054, 50.4343329]}, "properties": {"osm_node_id": 269432297}}, {"type": "Feature", "geometry": {"type": "Point", "coordinates": [30.4983512, 50.4543439]}, "properties": {"osm_node_id": 270047383}}, {"type": "Feature", "geometry": {"type": "Point", "coordinates": [30.5015417, 50.4542826]}, "properties": {"osm_node_id": 270047391}}, {"type": "Feature", "geometry": {"type": "Point", "coordinates": [30.5015578, 50.4340849]}, "properties": {"osm_node_id": 275819931}}, {"type": "Feature", "geometry": {"type": "Point", "coordinates": [30.4988571, 50.444515]}, "properties": {"osm_node_id": 294975564}}, {"type": "Feature", "geometry": {"type": "Point", "coordinates": [30.4960847, 50.462187]}, "properties": {"osm_node_id": 298150586}}, {"type": "Feature", "geometry": {"type": "Point", "coordinates": [30.5081526, 50.4455801]}, "properties": {"osm_node_id": 298274357}}, {"type": "Feature", "geometry": {"type": "Point", "coordinates": [30.5097618, 50.4453052]}, "properties": {"osm_node_id": 298274714}}, {"type": "Feature", "geometry": {"type": "Point", "coordinates": [30.521766, 50.4595373]}, "properties": {"osm_node_id": 305445934}}, {"type": "Feature", "geometry": {"type": "Point", "coordinates": [30.5130558, 50.4646767]}, "properties": {"osm_node_id": 305629798}}, {"type": "Feature", "geometry": {"type": "Point", "coordinates": [30.5068946, 50.4628314]}, "properties": {"osm_node_id": 305980434}}, {"type": "Feature", "geometry": {"type": "Point", "coordinates": [30.5106042, 50.4652555]}, "properties": {"osm_node_id": 305980443}}, {"type": "Feature", "geometry": {"type": "Point", "coordinates": [30.4991063, 50.437036]}, "properties": {"osm_node_id": 312691048}}, {"type": "Feature", "geometry": {"type": "Point", "coordinates": [30.5380657, 50.4306949]}, "properties": {"osm_node_id": 332490744}}, {"type": "Feature", "geometry": {"type": "Point", "coordinates": [30.5360007, 50.4318128]}, "properties": {"osm_node_id": 332490745}}, {"type": "Feature", "geometry": {"type": "Point", "coordinates": [30.5202145, 50.460225]}, "properties": {"osm_node_id": 346880556}}, {"type": "Feature", "geometry": {"type": "Point", "coordinates": [30.5073568, 50.4622917]}, "properties": {"osm_node_id": 346919848}}, {"type": "Feature", "geometry": {"type": "Point", "coordinates": [30.5094729, 50.4614601]}, "properties": {"osm_node_id": 346920626}}, {"type": "Feature", "geometry": {"type": "Point", "coordinates": [30.5131659, 50.45928]}, "properties": {"osm_node_id": 346920637}}, {"type": "Feature", "geometry": {"type": "Point", "coordinates": [30.5242056, 50.466301]}, "properties": {"osm_node_id": 347862570}}, {"type": "Feature", "geometry": {"type": "Point", "coordinates": [30.5133488, 50.4575761]}, "properties": {"osm_node_id": 355413638}}, {"type": "Feature", "geometry": {"type": "Point", "coordinates": [30.5242958, 50.4523884]}, "properties": {"osm_node_id": 355596890}}, {"type": "Feature", "geometry": {"type": "Point", "coordinates": [30.5279556, 50.4517977]}, "properties": {"osm_node_id": 355596892}}, {"type": "Feature", "geometry": {"type": "Point", "coordinates": [30.5178241, 50.4509793]}, "properties": {"osm_node_id": 359963926}}, {"type": "Feature", "geometry": {"type": "Point", "coordinates": [30.5001581, 50.4473491]}, "properties": {"osm_node_id": 367423467}}, {"type": "Feature", "geometry": {"type": "Point", "coordinates": [30.5135595, 50.4320303]}, "properties": {"osm_node_id": 372980683}}, {"type": "Feature", "geometry": {"type": "Point", "coordinates": [30.5135914, 50.4339919]}, "properties": {"osm_node_id": 372980685}}, {"type": "Feature", "geometry": {"type": "Point", "coordinates": [30.518394, 50.4457653]}, "properties": {"osm_node_id": 384744829}}, {"type": "Feature", "geometry": {"type": "Point", "coordinates": [30.5111244, 50.4403732]}, "properties": {"osm_node_id": 385672334}}, {"type": "Feature", "geometry": {"type": "Point", "coordinates": [30.5123887, 50.4434879]}, "properties": {"osm_node_id": 385672335}}, {"type": "Feature", "geometry": {"type": "Point", "coordinates": [30.5083331, 50.4408341]}, "properties": {"osm_node_id": 385975739}}, {"type": "Feature", "geometry": {"type": "Point", "coordinates": [30.5222686, 50.4422859]}, "properties": {"osm_node_id": 416093625}}, {"type": "Feature", "geometry": {"type": "Point", "coordinates": [30.5221869, 50.4407657]}, "properties": {"osm_node_id": 417531970}}, {"type": "Feature", "geometry": {"type": "Point", "coordinates": [30.5227442, 50.442452]}, "properties": {"osm_node_id": 417532003}}, {"type": "Feature", "geometry": {"type": "Point", "coordinates": [30.523238, 50.4425404]}, "properties": {"osm_node_id": 417532007}}, {"type": "Feature", "geometry": {"type": "Point", "coordinates": [30.4959755, 50.4477605]}, "properties": {"osm_node_id": 427595735}}, {"type": "Feature", "geometry": {"type": "Point", "coordinates": [30.5141817, 50.4509156]}, "properties": {"osm_node_id": 428418580}}, {"type": "Feature", "geometry": {"type": "Point", "coordinates": [30.5136353, 50.4510638]}, "properties": {"osm_node_id": 428418583}}, {"type": "Feature", "geometry": {"type": "Point", "coordinates": [30.5061563, 50.4553808]}, "properties": {"osm_node_id": 428628645}}, {"type": "Feature", "geometry": {"type": "Point", "coordinates": [30.5060338, 50.4542448]}, "properties": {"osm_node_id": 428628647}}, {"type": "Feature", "geometry": {"type": "Point", "coordinates": [30.4957889, 50.4563015]}, "properties": {"osm_node_id": 440630234}}, {"type": "Feature", "geometry": {"type": "Point", "coordinates": [30.5467805, 50.4396324]}, "properties": {"osm_node_id": 444327124}}, {"type": "Feature", "geometry": {"type": "Point", "coordinates": [30.5135514, 50.4647765]}, "properties": {"osm_node_id": 447915420}}, {"type": "Feature", "geometry": {"type": "Point", "coordinates": [30.5149995, 50.443294]}, "properties": {"osm_node_id": 539997004}}, {"type": "Feature", "geometry": {"type": "Point", "coordinates": [30.517251, 50.4429414]}, "properties": {"osm_node_id": 539997006}}, {"type": "Feature", "geometry": {"type": "Point", "coordinates": [30.5210665, 50.4428357]}, "properties": {"osm_node_id": 539997021}}, {"type": "Feature", "geometry": {"type": "Point", "coordinates": [30.4950213, 50.4462878]}, "properties": {"osm_node_id": 546450884}}, {"type": "Feature", "geometry": {"type": "Point", "coordinates": [30.4976887, 50.4461131]}, "properties": {"osm_node_id": 546450891}}, {"type": "Feature", "geometry": {"type": "Point", "coordinates": [30.5007929, 50.4453725]}, "properties": {"osm_node_id": 546450898}}, {"type": "Feature", "geometry": {"type": "Point", "coordinates": [30.5029527, 50.4452519]}, "properties": {"osm_node_id": 546450901}}, {"type": "Feature", "geometry": {"type": "Point", "coordinates": [30.5060997, 50.4447395]}, "properties": {"osm_node_id": 546450905}}, {"type": "Feature", "geometry": {"type": "Point", "coordinates": [30.5076246, 50.4444943]}, "properties": {"osm_node_id": 546450915}}, {"type": "Feature", "geometry": {"type": "Point", "coordinates": [30.5091976, 50.4440145]}, "properties": {"osm_node_id": 546450950}}, {"type": "Feature", "geometry": {"type": "Point", "coordinates": [30.5093313, 50.4442159]}, "properties": {"osm_node_id": 546450951}}, {"type": "Feature", "geometry": {"type": "Point", "coordinates": [30.5143467, 50.4512908]}, "properties": {"osm_node_id": 551304957}}, {"type": "Feature", "geometry": {"type": "Point", "coordinates": [30.5117587, 50.4637589]}, "properties": {"osm_node_id": 573837819}}, {"type": "Feature", "geometry": {"type": "Point", "coordinates": [30.5136011, 50.4399504]}, "properties": {"osm_node_id": 581386856}}, {"type": "Feature", "geometry": {"type": "Point", "coordinates": [30.5196496, 50.4405763]}, "properties": {"osm_node_id": 581392335}}, {"type": "Feature", "geometry": {"type": "Point", "coordinates": [30.5206024, 50.4429803]}, "properties": {"osm_node_id": 599413915}}, {"type": "Feature", "geometry": {"type": "Point", "coordinates": [30.5221798, 50.447734]}, "properties": {"osm_node_id": 599413919}}, {"type": "Feature", "geometry": {"type": "Point", "coordinates": [30.5253757, 50.4532493]}, "properties": {"osm_node_id": 599414000}}, {"type": "Feature", "geometry": {"type": "Point", "coordinates": [30.5272535, 50.4522655]}, "properties": {"osm_node_id": 599414035}}, {"type": "Feature", "geometry": {"type": "Point", "coordinates": [30.5279623, 50.4527853]}, "properties": {"osm_node_id": 599414041}}, {"type": "Feature", "geometry": {"type": "Point", "coordinates": [30.5239601, 50.4396567]}, "properties": {"osm_node_id": 601265487}}, {"type": "Feature", "geometry": {"type": "Point", "coordinates": [30.5239522, 50.4425507]}, "properties": {"osm_node_id": 601265505}}, {"type": "Feature", "geometry": {"type": "Point", "coordinates": [30.5283426, 50.4411583]}, "properties": {"osm_node_id": 601265542}}, {"type": "Feature", "geometry": {"type": "Point", "coordinates": [30.5329997, 50.4427363]}, "properties": {"osm_node_id": 601265975}}, {"type": "Feature", "geometry": {"type": "Point", "coordinates": [30.53614, 50.445051]}, "properties": {"osm_node_id": 601265996}}, {"type": "Feature", "geometry": {"type": "Point", "coordinates": [30.5363266, 50.4449555]}, "properties": {"osm_node_id": 601265997}}, {"type": "Feature", "geometry": {"type": "Point", "coordinates": [30.5458303, 50.4414223]}, "properties": {"osm_node_id": 601726410}}, {"type": "Feature", "geometry": {"type": "Point", "coordinates": [30.5478795, 50.4398733]}, "properties": {"osm_node_id": 601726646}}, {"type": "Feature", "geometry": {"type": "Point", "coordinates": [30.5491327, 50.440195]}, "properties": {"osm_node_id": 601726690}}, {"type": "Feature", "geometry": {"type": "Point", "coordinates": [30.549354, 50.4399096]}, "properties": {"osm_node_id": 601726698}}, {"type": "Feature", "geometry": {"type": "Point", "coordinates": [30.5138544, 50.4511442]}, "properties": {"osm_node_id": 648544336}}, {"type": "Feature", "geometry": {"type": "Point", "coordinates": [30.4981687, 50.4486364]}, "properties": {"osm_node_id": 648874947}}, {"type": "Feature", "geometry": {"type": "Point", "coordinates": [30.501227, 50.4564685]}, "properties": {"osm_node_id": 648874994}}, {"type": "Feature", "geometry": {"type": "Point", "coordinates": [30.5059675, 50.4575072]}, "properties": {"osm_node_id": 648875004}}, {"type": "Feature", "geometry": {"type": "Point", "coordinates": [30.503894, 50.441512]}, "properties": {"osm_node_id": 649484194}}, {"type": "Feature", "geometry": {"type": "Point", "coordinates": [30.5065693, 50.4410717]}, "properties": {"osm_node_id": 649484200}}, {"type": "Feature", "geometry": {"type": "Point", "coordinates": [30.5291501, 50.4541635]}, "properties": {"osm_node_id": 740862040}}, {"type": "Feature", "geometry": {"type": "Point", "coordinates": [30.5286441, 50.4541025]}, "properties": {"osm_node_id": 740862048}}, {"type": "Feature", "geometry": {"type": "Point", "coordinates": [30.5254907, 50.464052]}, "properties": {"osm_node_id": 740862060}}, {"type": "Feature", "geometry": {"type": "Point", "coordinates": [30.527757, 50.4535442]}, "properties": {"osm_node_id": 740862084}}, {"type": "Feature", "geometry": {"type": "Point", "coordinates": [30.5318045, 50.4493926]}, "properties": {"osm_node_id": 782137157}}, {"type": "Feature", "geometry": {"type": "Point", "coordinates": [30.520952, 50.4564402]}, "properties": {"osm_node_id": 784034974}}, {"type": "Feature", "geometry": {"type": "Point", "coordinates": [30.5188164, 50.4580434]}, "properties": {"osm_node_id": 784035319}}, {"type": "Feature", "geometry": {"type": "Point", "coordinates": [30.5497974, 50.4402661]}, "properties": {"osm_node_id": 945024119}}, {"type": "Feature", "geometry": {"type": "Point", "coordinates": [30.5484104, 50.4419307]}, "properties": {"osm_node_id": 946606603}}, {"type": "Feature", "geometry": {"type": "Point", "coordinates": [30.5256657, 50.4633504]}, "properties": {"osm_node_id": 970413195}}, {"type": "Feature", "geometry": {"type": "Point", "coordinates": [30.5081116, 50.4551653]}, "properties": {"osm_node_id": 1069210700}}, {"type": "Feature", "geometry": {"type": "Point", "coordinates": [30.5072797, 50.4550933]}, "properties": {"osm_node_id": 1069210702}}, {"type": "Feature", "geometry": {"type": "Point", "coordinates": [30.5021042, 50.4649036]}, "properties": {"osm_node_id": 1297814425}}, {"type": "Feature", "geometry": {"type": "Point", "coordinates": [30.50712, 50.4629764]}, "properties": {"osm_node_id": 1297814433}}, {"type": "Feature", "geometry": {"type": "Point", "coordinates": [30.4951771, 50.4427487]}, "properties": {"osm_node_id": 1307798791}}, {"type": "Feature", "geometry": {"type": "Point", "coordinates": [30.5354508, 50.4306719]}, "properties": {"osm_node_id": 1457874876}}, {"type": "Feature", "geometry": {"type": "Point", "coordinates": [30.5070563, 50.4625216]}, "properties": {"osm_node_id": 1469178333}}, {"type": "Feature", "geometry": {"type": "Point", "coordinates": [30.50687, 50.46266]}, "properties": {"osm_node_id": 1469178437}}, {"type": "Feature", "geometry": {"type": "Point", "coordinates": [30.5089606, 50.4641748]}, "properties": {"osm_node_id": 1469178541}}, {"type": "Feature", "geometry": {"type": "Point", "coordinates": [30.5157718, 50.4645499]}, "properties": {"osm_node_id": 1473114344}}, {"type": "Feature", "geometry": {"type": "Point", "coordinates": [30.5177705, 50.4649573]}, "properties": {"osm_node_id": 1473114351}}, {"type": "Feature", "geometry": {"type": "Point", "coordinates": [30.5099221, 50.4603694]}, "properties": {"osm_node_id": 1533851822}}, {"type": "Feature", "geometry": {"type": "Point", "coordinates": [30.5105178, 50.4580837]}, "properties": {"osm_node_id": 1533854211}}, {"type": "Feature", "geometry": {"type": "Point", "coordinates": [30.5086369, 50.4567024]}, "properties": {"osm_node_id": 1579361161}}, {"type": "Feature", "geometry": {"type": "Point", "coordinates": [30.5105083, 50.4607376]}, "properties": {"osm_node_id": 1592490498}}, {"type": "Feature", "geometry": {"type": "Point", "coordinates": [30.5089749, 50.4611412]}, "properties": {"osm_node_id": 1592490501}}, {"type": "Feature", "geometry": {"type": "Point", "coordinates": [30.5311024, 50.4337799]}, "properties": {"osm_node_id": 1596089288}}, {"type": "Feature", "geometry": {"type": "Point", "coordinates": [30.531412, 50.433937]}, "properties": {"osm_node_id": 1596089296}}, {"type": "Feature", "geometry": {"type": "Point", "coordinates": [30.526565, 50.4377357]}, "properties": {"osm_node_id": 1596089320}}, {"type": "Feature", "geometry": {"type": "Point", "coordinates": [30.5246071, 50.4503578]}, "properties": {"osm_node_id": 1605526714}}, {"type": "Feature", "geometry": {"type": "Point", "coordinates": [30.5299323, 50.4498488]}, "properties": {"osm_node_id": 1625069774}}, {"type": "Feature", "geometry": {"type": "Point", "coordinates": [30.5171552, 50.4426949]}, "properties": {"osm_node_id": 1648670984}}, {"type": "Feature", "geometry": {"type": "Point", "coordinates": [30.5282842, 50.454719]}, "properties": {"osm_node_id": 1705964397}}, {"type": "Feature", "geometry": {"type": "Point", "coordinates": [30.5246006, 50.4342604]}, "properties": {"osm_node_id": 1777991144}}, {"type": "Feature", "geometry": {"type": "Point", "coordinates": [30.5417122, 50.444289]}, "properties": {"osm_node_id": 1781351346}}, {"type": "Feature", "geometry": {"type": "Point", "coordinates": [30.5426639, 50.4476284]}, "properties": {"osm_node_id": 1781351371}}, {"type": "Feature", "geometry": {"type": "Point", "coordinates": [30.5412917, 50.4318319]}, "properties": {"osm_node_id": 1782367722}}, {"type": "Feature", "geometry": {"type": "Point", "coordinates": [30.5373539, 50.4329793]}, "properties": {"osm_node_id": 1782367768}}, {"type": "Feature", "geometry": {"type": "Point", "coordinates": [30.5376279, 50.4338297]}, "properties": {"osm_node_id": 1782367778}}, {"type": "Feature", "geometry": {"type": "Point", "coordinates": [30.5270898, 50.4494577]}, "properties": {"osm_node_id": 1826053171}}, {"type": "Feature", "geometry": {"type": "Point", "coordinates": [30.5462113, 50.4433466]}, "properties": {"osm_node_id": 1835828687}}, {"type": "Feature", "geometry": {"type": "Point", "coordinates": [30.546411, 50.4385177]}, "properties": {"osm_node_id": 1889465647}}, {"type": "Feature", "geometry": {"type": "Point", "coordinates": [30.4976461, 50.4458761]}, "properties": {"osm_node_id": 1889465648}}, {"type": "Feature", "geometry": {"type": "Point", "coordinates": [30.534402, 50.4437618]}, "properties": {"osm_node_id": 1909610036}}, {"type": "Feature", "geometry": {"type": "Point", "coordinates": [30.5246218, 50.4671309]}, "properties": {"osm_node_id": 1974989130}}, {"type": "Feature", "geometry": {"type": "Point", "coordinates": [30.5303823, 50.450059]}, "properties": {"osm_node_id": 2055689370}}, {"type": "Feature", "geometry": {"type": "Point", "coordinates": [30.5297363, 50.4503521]}, "properties": {"osm_node_id": 2055689372}}, {"type": "Feature", "geometry": {"type": "Point", "coordinates": [30.5078137, 50.4625542]}, "properties": {"osm_node_id": 2074576915}}, {"type": "Feature", "geometry": {"type": "Point", "coordinates": [30.5181036, 50.4579106]}, "properties": {"osm_node_id": 2074579749}}, {"type": "Feature", "geometry": {"type": "Point", "coordinates": [30.520524, 50.4550842]}, "properties": {"osm_node_id": 2283050232}}, {"type": "Feature", "geometry": {"type": "Point", "coordinates": [30.5247802, 50.4590972]}, "properties": {"osm_node_id": 2439276436}}, {"type": "Feature", "geometry": {"type": "Point", "coordinates": [30.5260064, 50.4605697]}, "properties": {"osm_node_id": 2439280164}}, {"type": "Feature", "geometry": {"type": "Point", "coordinates": [30.5086564, 50.4551606]}, "properties": {"osm_node_id": 2462504913}}, {"type": "Feature", "geometry": {"type": "Point", "coordinates": [30.5086989, 50.455384]}, "properties": {"osm_node_id": 2462504917}}, {"type": "Feature", "geometry": {"type": "Point", "coordinates": [30.5053398, 50.4576599]}, "properties": {"osm_node_id": 2477465554}}, {"type": "Feature", "geometry": {"type": "Point", "coordinates": [30.5052433, 50.4576812]}, "properties": {"osm_node_id": 2477471665}}, {"type": "Feature", "geometry": {"type": "Point", "coordinates": [30.5242451, 50.4594409]}, "properties": {"osm_node_id": 2509773981}}, {"type": "Feature", "geometry": {"type": "Point", "coordinates": [30.5054865, 50.434111]}, "properties": {"osm_node_id": 2522195122}}, {"type": "Feature", "geometry": {"type": "Point", "coordinates": [30.5056122, 50.4341137]}, "properties": {"osm_node_id": 2522195124}}, {"type": "Feature", "geometry": {"type": "Point", "coordinates": [30.5132696, 50.4572417]}, "properties": {"osm_node_id": 2534325468}}, {"type": "Feature", "geometry": {"type": "Point", "coordinates": [30.5362881, 50.4403324]}, "properties": {"osm_node_id": 2582051572}}, {"type": "Feature", "geometry": {"type": "Point", "coordinates": [30.5235224, 50.4547808]}, "properties": {"osm_node_id": 2607878567}}, {"type": "Feature", "geometry": {"type": "Point", "coordinates": [30.5419708, 50.4314558]}, "properties": {"osm_node_id": 2610748148}}, {"type": "Feature", "geometry": {"type": "Point", "coordinates": [30.5346286, 50.4436357]}, "properties": {"osm_node_id": 2667092966}}, {"type": "Feature", "geometry": {"type": "Point", "coordinates": [30.5260699, 50.440034]}, "properties": {"osm_node_id": 2683070237}}, {"type": "Feature", "geometry": {"type": "Point", "coordinates": [30.5141916, 50.461928]}, "properties": {"osm_node_id": 2763664955}}, {"type": "Feature", "geometry": {"type": "Point", "coordinates": [30.5144909, 50.4569559]}, "properties": {"osm_node_id": 2773309260}}, {"type": "Feature", "geometry": {"type": "Point", "coordinates": [30.5279034, 50.435622]}, "properties": {"osm_node_id": 2875388411}}, {"type": "Feature", "geometry": {"type": "Point", "coordinates": [30.5447707, 50.4419037]}, "properties": {"osm_node_id": 2933850361}}, {"type": "Feature", "geometry": {"type": "Point", "coordinates": [30.5484751, 50.4411045]}, "properties": {"osm_node_id": 2933873159}}, {"type": "Feature", "geometry": {"type": "Point", "coordinates": [30.5326357, 50.4386335]}, "properties": {"osm_node_id": 3096614311}}, {"type": "Feature", "geometry": {"type": "Point", "coordinates": [30.5377703, 50.4378215]}, "properties": {"osm_node_id": 3143528697}}, {"type": "Feature", "geometry": {"type": "Point", "coordinates": [30.5230265, 50.4588882]}, "properties": {"osm_node_id": 3213880643}}, {"type": "Feature", "geometry": {"type": "Point", "coordinates": [30.5059279, 50.4599724]}, "properties": {"osm_node_id": 3404945344}}, {"type": "Feature", "geometry": {"type": "Point", "coordinates": [30.5098709, 50.4643386]}, "properties": {"osm_node_id": 3473013144}}, {"type": "Feature", "geometry": {"type": "Point", "coordinates": [30.5004251, 50.4605975]}, "properties": {"osm_node_id": 3509227008}}, {"type": "Feature", "geometry": {"type": "Point", "coordinates": [30.5367401, 50.4431065]}, "properties": {"osm_node_id": 3531827483}}, {"type": "Feature", "geometry": {"type": "Point", "coordinates": [30.4960367, 50.4386947]}, "properties": {"osm_node_id": 3747484368}}, {"type": "Feature", "geometry": {"type": "Point", "coordinates": [30.5125183, 50.4665199]}, "properties": {"osm_node_id": 3791161363}}, {"type": "Feature", "geometry": {"type": "Point", "coordinates": [30.5106762, 50.4600443]}, "properties": {"osm_node_id": 3847379059}}, {"type": "Feature", "geometry": {"type": "Point", "coordinates": [30.5111372, 50.4603914]}, "properties": {"osm_node_id": 3847379062}}, {"type": "Feature", "geometry": {"type": "Point", "coordinates": [30.5001478, 50.4638144]}, "properties": {"osm_node_id": 4190304277}}, {"type": "Feature", "geometry": {"type": "Point", "coordinates": [30.5006749, 50.4639024]}, "properties": {"osm_node_id": 4190304279}}, {"type": "Feature", "geometry": {"type": "Point", "coordinates": [30.5081481, 50.4617218]}, "properties": {"osm_node_id": 4333004033}}, {"type": "Feature", "geometry": {"type": "Point", "coordinates": [30.5068137, 50.431271]}, "properties": {"osm_node_id": 4334519582}}, {"type": "Feature", "geometry": {"type": "Point", "coordinates": [30.5044639, 50.4656824]}, "properties": {"osm_node_id": 4335405500}}, {"type": "Feature", "geometry": {"type": "Point", "coordinates": [30.5266918, 50.4518606]}, "properties": {"osm_node_id": 4352743502}}, {"type": "Feature", "geometry": {"type": "Point", "coordinates": [30.5293716, 50.4507359]}, "properties": {"osm_node_id": 4427104272}}, {"type": "Feature", "geometry": {"type": "Point", "coordinates": [30.5180662, 50.4583548]}, "properties": {"osm_node_id": 4430909203}}, {"type": "Feature", "geometry": {"type": "Point", "coordinates": [30.5165478, 50.4614865]}, "properties": {"osm_node_id": 4574269179}}, {"type": "Feature", "geometry": {"type": "Point", "coordinates": [30.5178533, 50.4622404]}, "properties": {"osm_node_id": 4574269184}}, {"type": "Feature", "geometry": {"type": "Point", "coordinates": [30.5041569, 50.4492871]}, "properties": {"osm_node_id": 4711603571}}, {"type": "Feature", "geometry": {"type": "Point", "coordinates": [30.5180997, 50.4651105]}, "properties": {"osm_node_id": 4758233839}}, {"type": "Feature", "geometry": {"type": "Point", "coordinates": [30.5498109, 50.44084]}, "properties": {"osm_node_id": 4762745683}}, {"type": "Feature", "geometry": {"type": "Point", "coordinates": [30.5250382, 50.4390718]}, "properties": {"osm_node_id": 4763029292}}, {"type": "Feature", "geometry": {"type": "Point", "coordinates": [30.5222423, 50.4424562]}, "properties": {"osm_node_id": 4763029296}}, {"type": "Feature", "geometry": {"type": "Point", "coordinates": [30.508268, 50.4408442]}, "properties": {"osm_node_id": 4764593122}}, {"type": "Feature", "geometry": {"type": "Point", "coordinates": [30.502745, 50.4417389]}, "properties": {"osm_node_id": 4764593125}}, {"type": "Feature", "geometry": {"type": "Point", "coordinates": [30.5105166, 50.4596015]}, "properties": {"osm_node_id": 4771636983}}, {"type": "Feature", "geometry": {"type": "Point", "coordinates": [30.5450216, 50.435491]}, "properties": {"osm_node_id": 4872630756}}, {"type": "Feature", "geometry": {"type": "Point", "coordinates": [30.5229785, 50.4512492]}, "properties": {"osm_node_id": 4898190102}}, {"type": "Feature", "geometry": {"type": "Point", "coordinates": [30.5274722, 50.4524232]}, "properties": {"osm_node_id": 4899059359}}, {"type": "Feature", "geometry": {"type": "Point", "coordinates": [30.524246, 50.4456133]}, "properties": {"osm_node_id": 4931511367}}, {"type": "Feature", "geometry": {"type": "Point", "coordinates": [30.5011031, 50.4455543]}, "properties": {"osm_node_id": 4963512573}}, {"type": "Feature", "geometry": {"type": "Point", "coordinates": [30.500174, 50.4621685]}, "properties": {"osm_node_id": 4971158759}}, {"type": "Feature", "geometry": {"type": "Point", "coordinates": [30.5066321, 50.4626811]}, "properties": {"osm_node_id": 4971158780}}, {"type": "Feature", "geometry": {"type": "Point", "coordinates": [30.4960052, 50.4620931]}, "properties": {"osm_node_id": 4971158782}}, {"type": "Feature", "geometry": {"type": "Point", "coordinates": [30.5139733, 50.4652861]}, "properties": {"osm_node_id": 5371387042}}, {"type": "Feature", "geometry": {"type": "Point", "coordinates": [30.5138092, 50.4650636]}, "properties": {"osm_node_id": 5371389103}}, {"type": "Feature", "geometry": {"type": "Point", "coordinates": [30.5099693, 50.4595909]}, "properties": {"osm_node_id": 5372968019}}, {"type": "Feature", "geometry": {"type": "Point", "coordinates": [30.5202862, 50.4422001]}, "properties": {"osm_node_id": 5433718713}}, {"type": "Feature", "geometry": {"type": "Point", "coordinates": [30.520463, 50.4425805]}, "properties": {"osm_node_id": 5433718714}}, {"type": "Feature", "geometry": {"type": "Point", "coordinates": [30.5453213, 50.4359538]}, "properties": {"osm_node_id": 5549538916}}, {"type": "Feature", "geometry": {"type": "Point", "coordinates": [30.5203364, 50.4622052]}, "properties": {"osm_node_id": 5557758232}}, {"type": "Feature", "geometry": {"type": "Point", "coordinates": [30.4959009, 50.4379366]}, "properties": {"osm_node_id": 5587877752}}, {"type": "Feature", "geometry": {"type": "Point", "coordinates": [30.5201352, 50.4637742]}, "properties": {"osm_node_id": 5600659146}}, {"type": "Feature", "geometry": {"type": "Point", "coordinates": [30.5137898, 50.4398715]}, "properties": {"osm_node_id": 5900409316}}, {"type": "Feature", "geometry": {"type": "Point", "coordinates": [30.5137946, 50.4399501]}, "properties": {"osm_node_id": 5900409317}}, {"type": "Feature", "geometry": {"type": "Point", "coordinates": [30.5001597, 50.4622667]}, "properties": {"osm_node_id": 6025466615}}, {"type": "Feature", "geometry": {"type": "Point", "coordinates": [30.4951448, 50.4624072]}, "properties": {"osm_node_id": 6025466621}}, {"type": "Feature", "geometry": {"type": "Point", "coordinates": [30.5074522, 50.4627671]}, "properties": {"osm_node_id": 6047288168}}, {"type": "Feature", "geometry": {"type": "Point", "coordinates": [30.5199091, 50.4410196]}, "properties": {"osm_node_id": 6072619901}}, {"type": "Feature", "geometry": {"type": "Point", "coordinates": [30.5201255, 50.4407815]}, "properties": {"osm_node_id": 6302278919}}, {"type": "Feature", "geometry": {"type": "Point", "coordinates": [30.5159136, 50.43959]}, "properties": {"osm_node_id": 6303032269}}, {"type": "Feature", "geometry": {"type": "Point", "coordinates": [30.5168942, 50.4393497]}, "properties": {"osm_node_id": 6303032270}}, {"type": "Feature", "geometry": {"type": "Point", "coordinates": [30.5168207, 50.4394166]}, "properties": {"osm_node_id": 6335019538}}, {"type": "Feature", "geometry": {"type": "Point", "coordinates": [30.5201352, 50.4422217]}, "properties": {"osm_node_id": 6335083628}}, {"type": "Feature", "geometry": {"type": "Point", "coordinates": [30.5272046, 50.4524013]}, "properties": {"osm_node_id": 6335290736}}, {"type": "Feature", "geometry": {"type": "Point", "coordinates": [30.5197209, 50.440973]}, "properties": {"osm_node_id": 6335327556}}, {"type": "Feature", "geometry": {"type": "Point", "coordinates": [30.516687, 50.4393704]}, "properties": {"osm_node_id": 6338068758}}, {"type": "Feature", "geometry": {"type": "Point", "coordinates": [30.5136163, 50.4359616]}, "properties": {"osm_node_id": 6451543711}}, {"type": "Feature", "geometry": {"type": "Point", "coordinates": [30.5249245, 50.4386302]}, "properties": {"osm_node_id": 6471879771}}, {"type": "Feature", "geometry": {"type": "Point", "coordinates": [30.5498922, 50.4428713]}, "properties": {"osm_node_id": 6475220001}}, {"type": "Feature", "geometry": {"type": "Point", "coordinates": [30.5094502, 50.4573324]}, "properties": {"osm_node_id": 6503338629}}, {"type": "Feature", "geometry": {"type": "Point", "coordinates": [30.5182251, 50.4649354]}, "properties": {"osm_node_id": 6949509194}}, {"type": "Feature", "geometry": {"type": "Point", "coordinates": [30.5230959, 50.449178]}, "properties": {"osm_node_id": 7069482037}}, {"type": "Feature", "geometry": {"type": "Point", "coordinates": [30.5226681, 50.4462556]}, "properties": {"osm_node_id": 8149092778}}, {"type": "Feature", "geometry": {"type": "Point", "coordinates": [30.515332, 50.4597601]}, "properties": {"osm_node_id": 9036711548}}, {"type": "Feature", "geometry": {"type": "Point", "coordinates": [30.5376552, 50.4378277]}, "properties": {"osm_node_id": 9150383630}}, {"type": "Feature", "geometry": {"type": "Point", "coordinates": [30.5017204, 50.4570326]}, "properties": {"osm_node_id": 9273369975}}, {"type": "Feature", "geometry": {"type": "Point", "coordinates": [30.5014872, 50.4571397]}, "properties": {"osm_node_id": 9273369976}}, {"type": "Feature", "geometry": {"type": "Point", "coordinates": [30.5255719, 50.4384523]}, "properties": {"osm_node_id": 9915990637}}, {"type": "Feature", "geometry": {"type": "Point", "coordinates": [30.5230304, 50.4602387]}, "properties": {"osm_node_id": 10252932949}}, {"type": "Feature", "geometry": {"type": "Point", "coordinates": [30.5220178, 50.4477583]}, "properties": {"osm_node_id": 10294196188}}, {"type": "Feature", "geometry": {"type": "Point", "coordinates": [30.5279168, 50.4529181]}, "properties": {"osm_node_id": 10294230515}}, {"type": "Feature", "geometry": {"type": "Point", "coordinates": [30.5202725, 50.4425259]}, "properties": {"osm_node_id": 10294230519}}, {"type": "Feature", "geometry": {"type": "Point", "coordinates": [30.5211233, 50.4445466]}, "properties": {"osm_node_id": 10294230521}}, {"type": "Feature", "geometry": {"type": "Point", "coordinates": [30.5210436, 50.4447969]}, "properties": {"osm_node_id": 10294230522}}, {"type": "Feature", "geometry": {"type": "Point", "coordinates": [30.5245011, 50.4504161]}, "properties": {"osm_node_id": 10294230535}}, {"type": "Feature", "geometry": {"type": "Point", "coordinates": [30.5233895, 50.4494557]}, "properties": {"osm_node_id": 10294245838}}, {"type": "Feature", "geometry": {"type": "Point", "coordinates": [30.5235318, 50.4491819]}, "properties": {"osm_node_id": 10294245842}}, {"type": "Feature", "geometry": {"type": "Point", "coordinates": [30.5225041, 50.4408355]}, "properties": {"osm_node_id": 10556697459}}, {"type": "Feature", "geometry": {"type": "Point", "coordinates": [30.5225798, 50.4409549]}, "properties": {"osm_node_id": 10556697468}}, {"type": "Feature", "geometry": {"type": "Point", "coordinates": [30.501373, 50.4568925]}, "properties": {"osm_node_id": 10742243402}}, {"type": "Feature", "geometry": {"type": "Point", "coordinates": [30.5012879, 50.456971]}, "properties": {"osm_node_id": 10742243404}}, {"type": "Feature", "geometry": {"type": "Point", "coordinates": [30.5014349, 50.4570103]}, "properties": {"osm_node_id": 11132228805}}, {"type": "Feature", "geometry": {"type": "Point", "coordinates": [30.518427, 50.4650392]}, "properties": {"osm_node_id": 11237795971}}, {"type": "Feature", "geometry": {"type": "Point", "coordinates": [30.5183094, 50.4651551]}, "properties": {"osm_node_id": 11237795986}}, {"type": "Feature", "geometry": {"type": "Point", "coordinates": [30.5292691, 50.4506994]}, "properties": {"osm_node_id": 11255209281}}, {"type": "Feature", "geometry": {"type": "Point", "coordinates": [30.5261347, 50.4597822]}, "properties": {"osm_node_id": 11554754511}}, {"type": "Feature", "geometry": {"type": "Point", "coordinates": [30.5160612, 50.4632864]}, "properties": {"osm_node_id": 11895718532}}, {"type": "Feature", "geometry": {"type": "Point", "coordinates": [30.5159907, 50.4632321]}, "properties": {"osm_node_id": 11895718544}}, {"type": "Feature", "geometry": {"type": "Point", "coordinates": [30.5160335, 50.4631868]}, "properties": {"osm_node_id": 11895718550}}, {"type": "Feature", "geometry": {"type": "Point", "coordinates": [30.5161465, 50.4632615]}, "properties": {"osm_node_id": 11895718561}}, {"type": "Feature", "geometry": {"type": "Point", "coordinates": [30.5245753, 50.4592325]}, "properties": {"osm_node_id": 12674028764}}, {"type": "Feature", "geometry": {"type": "Point", "coordinates": [30.5247159, 50.459546]}, "properties": {"osm_node_id": 12674028765}}, {"type": "Feature", "geometry": {"type": "Point", "coordinates": [30.5259678, 50.4386129]}, "properties": {"osm_node_id": 12844654231}}, {"type": "Feature", "geometry": {"type": "Point", "coordinates": [30.5257082, 50.4386131]}, "properties": {"osm_node_id": 12844654236}}, {"type": "Feature", "geometry": {"type": "Point", "coordinates": [30.5257901, 50.4387329]}, "properties": {"osm_node_id": 12844654239}}, {"type": "Feature", "geometry": {"type": "Point", "coordinates": [30.5253129, 50.4388403]}, "properties": {"osm_node_id": 12844674707}}, {"type": "Feature", "geometry": {"type": "Point", "coordinates": [30.5253107, 50.4390116]}, "properties": {"osm_node_id": 12844674708}}, {"type": "Feature", "geometry": {"type": "Point", "coordinates": [30.5238178, 50.4393645]}, "properties": {"osm_node_id": 12844693296}}, {"type": "Feature", "geometry": {"type": "Point", "coordinates": [30.5254789, 50.438591]}, "properties": {"osm_node_id": 12943422553}}, {"type": "Feature", "geometry": {"type": "Point", "coordinates": [30.4951107, 50.4391935]}, "properties": {"osm_node_id": 13127596954}}, {"type": "Feature", "geometry": {"type": "Point", "coordinates": [30.532684, 50.4489868]}, "properties": {"osm_node_id": 13758100676}}, {"type": "Feature", "geometry": {"type": "Point", "coordinates": [30.5031113, 50.4647962]}, "properties": {"osm_node_id": 13826497630}}, {"type": "Feature", "geometry": {"type": "Point", "coordinates": [30.541184, 50.434699]}, "properties": {"osm_node_id": 13911593405}}, {"type": "Feature", "geometry": {"type": "Point", "coordinates": [30.5319794, 50.4432625]}, "properties": {"osm_node_id": 14008709610}}, {"type": "Feature", "geometry": {"type": "Point", "coordinates": [30.5254556, 50.4386417]}, "properties": {"osm_node_id": 14032059312}}, {"type": "Feature", "geometry": {"type": "Point", "coordinates": [30.5102158, 50.4506748]}, "properties": {"osm_node_id": 14124574108}}, {"type": "Feature", "geometry": {"type": "Point", "coordinates": [30.5102254, 50.4508433]}, "properties": {"osm_node_id": 14124574110}}, {"type": "Feature", "geometry": {"type": "Point", "coordinates": [30.5103808, 50.4507219]}, "properties": {"osm_node_id": 14124574113}}]}